start=new Date('2023-05-15T00:00:00.000Z').valueOf();
sats=[{"COUNTRY_CODE":"US","EPHEMERIS_TYPE":"0","BSTAR":"0.00009936500000","ELEMENT_SET_NO":"999","PERIAPSIS":"539.036","TLE_LINE1":"1 52849U 22062V   23134.93870566  .00001294  00000-0  99365-4 0  9999","MEAN_MOTION":"15.08849575","SEMIMAJOR_AXIS":"6917.851","NORAD_CAT_ID":"52849","MEAN_MOTION_DOT":"0.00001294","OBJECT_NAME":"STARLINK-4197","RCS_SIZE":"LARGE","GP_ID":"231857680","CLASSIFICATION_TYPE":"U","OBJECT_TYPE":"PAYLOAD","OBJECT_ID":"2022-062V","ECCENTRICITY":"0.00009830","RA_OF_ASC_NODE":"326.8486","INCLINATION":"53.2176","MEAN_ELEMENT_THEORY":"SGP4","TLE_LINE2":"2 52849  53.2176 326.8486 0000983  96.8674 263.2430 15.08849575 50952","FILE":"3908009","REF_FRAME":"TEME","MEAN_ANOMALY":"263.2430","REV_AT_EPOCH":"5095","CENTER_NAME":"EARTH","DECAY_DATE":null,"APOAPSIS":"540.396","MEAN_MOTION_DDOT":"0.0000000000000","TIME_SYSTEM":"UTC","LAUNCH_DATE":"2022-06-17","SITE":"AFETR","ARG_OF_PERICENTER":"96.8674","PERIOD":"95.437","EPOCH":"2023-05-14T22:31:44.169024"},{"APOAPSIS":"540.538","MEAN_MOTION_DDOT":"0.0000000000000","CENTER_NAME":"EARTH","DECAY_DATE":null,"REV_AT_EPOCH":"5032","MEAN_ANOMALY":"285.2732","REF_FRAME":"TEME","TLE_LINE2":"2 52850  53.2173 337.1043 0001157  74.8388 285.2732 15.08842633 50325","FILE":"3908005","MEAN_ELEMENT_THEORY":"SGP4","RA_OF_ASC_NODE":"337.1043","INCLINATION":"53.2173","EPOCH":"2023-05-14T21:10:56.138880","PERIOD":"95.437","ARG_OF_PERICENTER":"74.8388","LAUNCH_DATE":"2022-06-17","TIME_SYSTEM":"UTC","SITE":"AFETR","ELEMENT_SET_NO":"999","BSTAR":"0.00005432300000","EPHEMERIS_TYPE":"0","COUNTRY_CODE":"US","OBJECT_ID":"2022-062W","ECCENTRICITY":"0.00011570","OBJECT_TYPE":"PAYLOAD","RCS_SIZE":"LARGE","GP_ID":"231855010","CLASSIFICATION_TYPE":"U","OBJECT_NAME":"STARLINK-4187","MEAN_MOTION_DOT":"0.00000577","SEMIMAJOR_AXIS":"6917.872","NORAD_CAT_ID":"52850","MEAN_MOTION":"15.08842633","PERIAPSIS":"538.937","TLE_LINE1":"1 52850U 22062W   23134.88259420  .00000577  00000-0  54323-4 0  9993"},{"EPHEMERIS_TYPE":"0","COUNTRY_CODE":"US","ELEMENT_SET_NO":"999","BSTAR":"0.00000285150000","MEAN_MOTION_DOT":"-0.00000242","NORAD_CAT_ID":"52851","SEMIMAJOR_AXIS":"6917.871","MEAN_MOTION":"15.08842912","TLE_LINE1":"1 52851U 22062X   23134.93503355 -.00000242  00000-0  28515-5 0  9994","PERIAPSIS":"539.093","ECCENTRICITY":"0.00009300","OBJECT_ID":"2022-062X","OBJECT_TYPE":"PAYLOAD","GP_ID":"231857683","CLASSIFICATION_TYPE":"U","RCS_SIZE":"LARGE","OBJECT_NAME":"STARLINK-3809","REF_FRAME":"TEME","MEAN_ANOMALY":"270.5837","FILE":"3908009","TLE_LINE2":"2 52851  53.2177 326.8679 0000930  89.5262 270.5837 15.08842912 50954","MEAN_ELEMENT_THEORY":"SGP4","INCLINATION":"53.2177","RA_OF_ASC_NODE":"326.8679","MEAN_MOTION_DDOT":"0.0000000000000","APOAPSIS":"540.380","DECAY_DATE":null,"CENTER_NAME":"EARTH","REV_AT_EPOCH":"5095","EPOCH":"2023-05-14T22:26:26.898720","PERIOD":"95.437","ARG_OF_PERICENTER":"89.5262","SITE":"AFETR","LAUNCH_DATE":"2022-06-17","TIME_SYSTEM":"UTC"},{"CENTER_NAME":"EARTH","DECAY_DATE":null,"APOAPSIS":"540.250","MEAN_MOTION_DDOT":"0.0000000000000","REV_AT_EPOCH":"5095","FILE":"3908009","TLE_LINE2":"2 52852  53.2175 326.8340 0000768  81.8364 278.2715 15.08848708 50954","MEAN_ANOMALY":"278.2715","REF_FRAME":"TEME","RA_OF_ASC_NODE":"326.8340","INCLINATION":"53.2175","MEAN_ELEMENT_THEORY":"SGP4","PERIOD":"95.437","EPOCH":"2023-05-14T22:37:02.364672","TIME_SYSTEM":"UTC","LAUNCH_DATE":"2022-06-17","SITE":"AFETR","ARG_OF_PERICENTER":"81.8364","ELEMENT_SET_NO":"999","BSTAR":"0.00003998000000","COUNTRY_CODE":"US","EPHEMERIS_TYPE":"0","OBJECT_TYPE":"PAYLOAD","OBJECT_ID":"2022-062Y","ECCENTRICITY":"0.00007680","OBJECT_NAME":"STARLINK-4184","RCS_SIZE":"LARGE","CLASSIFICATION_TYPE":"U","GP_ID":"231857674","SEMIMAJOR_AXIS":"6917.854","NORAD_CAT_ID":"52852","MEAN_MOTION_DOT":"0.00000349","PERIAPSIS":"539.187","TLE_LINE1":"1 52852U 22062Y   23134.94238848  .00000349  00000-0  39980-4 0  9992","MEAN_MOTION":"15.08848708"},{"REV_AT_EPOCH":"5045","APOAPSIS":"540.452","MEAN_MOTION_DDOT":"0.0000000000000","CENTER_NAME":"EARTH","DECAY_DATE":null,"MEAN_ELEMENT_THEORY":"SGP4","RA_OF_ASC_NODE":"327.1832","INCLINATION":"53.2172","REF_FRAME":"TEME","MEAN_ANOMALY":"287.3315","TLE_LINE2":"2 52853  53.2172 327.1832 0001030  72.7790 287.3315 15.08841993 50458","FILE":"3908005","ARG_OF_PERICENTER":"72.7790","LAUNCH_DATE":"2022-06-17","TIME_SYSTEM":"UTC","SITE":"AFETR","EPOCH":"2023-05-14T20:36:32.508576","PERIOD":"95.437","BSTAR":"0.00002911300000","ELEMENT_SET_NO":"999","EPHEMERIS_TYPE":"0","COUNTRY_CODE":"US","RCS_SIZE":"LARGE","GP_ID":"231854260","CLASSIFICATION_TYPE":"U","OBJECT_NAME":"STARLINK-4189","OBJECT_ID":"2022-062Z","ECCENTRICITY":"0.00010300","OBJECT_TYPE":"PAYLOAD","MEAN_MOTION":"15.08841993","PERIAPSIS":"539.027","TLE_LINE1":"1 52853U 22062Z   23134.85870959  .00000176  00000-0  29113-4 0  9993","MEAN_MOTION_DOT":"0.00000176","SEMIMAJOR_AXIS":"6917.874","NORAD_CAT_ID":"52853"},{"ARG_OF_PERICENTER":"87.7400","SITE":"AFETR","TIME_SYSTEM":"UTC","LAUNCH_DATE":"2022-06-17","EPOCH":"2023-05-14T22:21:08.771328","PERIOD":"95.437","REV_AT_EPOCH":"5095","MEAN_MOTION_DDOT":"0.0000000000000","APOAPSIS":"540.461","DECAY_DATE":null,"CENTER_NAME":"EARTH","MEAN_ELEMENT_THEORY":"SGP4","INCLINATION":"53.2165","RA_OF_ASC_NODE":"326.8848","REF_FRAME":"TEME","MEAN_ANOMALY":"272.3713","FILE":"3908009","TLE_LINE2":"2 52854  53.2165 326.8848 0001055  87.7400 272.3713 15.08844521 50956","CLASSIFICATION_TYPE":"U","GP_ID":"231857799","RCS_SIZE":"LARGE","OBJECT_NAME":"STARLINK-4204","ECCENTRICITY":"0.00010550","OBJECT_ID":"2022-062AA","OBJECT_TYPE":"PAYLOAD","MEAN_MOTION":"15.08844521","TLE_LINE1":"1 52854U 22062AA  23134.93135152  .00000771  00000-0  66492-4 0  9994","PERIAPSIS":"539.002","MEAN_MOTION_DOT":"0.00000771","NORAD_CAT_ID":"52854","SEMIMAJOR_AXIS":"6917.867","BSTAR":"0.00006649200000","ELEMENT_SET_NO":"999","EPHEMERIS_TYPE":"0","COUNTRY_CODE":"US"},{"LAUNCH_DATE":"2022-06-17","TIME_SYSTEM":"UTC","SITE":"AFETR","ARG_OF_PERICENTER":"81.9660","PERIOD":"95.437","EPOCH":"2023-05-14T20:29:52.185408","REV_AT_EPOCH":"5045","CENTER_NAME":"EARTH","DECAY_DATE":null,"APOAPSIS":"540.561","MEAN_MOTION_DDOT":"0.0000000000000","RA_OF_ASC_NODE":"327.2362","INCLINATION":"53.2171","MEAN_ELEMENT_THEORY":"SGP4","TLE_LINE2":"2 52855  53.2171 327.2362 0001187  81.9660 278.1466 15.08841916 50459","FILE":"3908005","MEAN_ANOMALY":"278.1466","REF_FRAME":"TEME","OBJECT_NAME":"STARLINK-4209","RCS_SIZE":"LARGE","GP_ID":"231855261","CLASSIFICATION_TYPE":"U","OBJECT_TYPE":"PAYLOAD","OBJECT_ID":"2022-062AB","ECCENTRICITY":"0.00011870","PERIAPSIS":"538.918","TLE_LINE1":"1 52855U 22062AB  23134.85407622  .00001861  00000-0  13495-3 0  9995","MEAN_MOTION":"15.08841916","SEMIMAJOR_AXIS":"6917.875","NORAD_CAT_ID":"52855","MEAN_MOTION_DOT":"0.00001861","BSTAR":"0.00013495000000","ELEMENT_SET_NO":"999","COUNTRY_CODE":"US","EPHEMERIS_TYPE":"0"},{"MEAN_MOTION":"15.08832880","PERIAPSIS":"538.932","TLE_LINE1":"1 52856U 22062AC  23134.85776214 -.00000456  00000-0 -10567-4 0  9991","MEAN_MOTION_DOT":"-0.00000456","SEMIMAJOR_AXIS":"6917.902","NORAD_CAT_ID":"52856","RCS_SIZE":"LARGE","GP_ID":"231857798","CLASSIFICATION_TYPE":"U","OBJECT_NAME":"STARLINK-4201","OBJECT_ID":"2022-062AC","ECCENTRICITY":"0.00012070","OBJECT_TYPE":"PAYLOAD","EPHEMERIS_TYPE":"0","COUNTRY_CODE":"US","BSTAR":"-0.00001056700000","ELEMENT_SET_NO":"999","ARG_OF_PERICENTER":"71.5037","LAUNCH_DATE":"2022-06-17","TIME_SYSTEM":"UTC","SITE":"AFETR","EPOCH":"2023-05-14T20:35:10.648896","PERIOD":"95.438","MEAN_ELEMENT_THEORY":"SGP4","RA_OF_ASC_NODE":"327.2204","INCLINATION":"53.2161","MEAN_ANOMALY":"288.6087","REF_FRAME":"TEME","FILE":"3908009","TLE_LINE2":"2 52856  53.2161 327.2204 0001207  71.5037 288.6087 15.08832880 50949","REV_AT_EPOCH":"5094","APOAPSIS":"540.602","MEAN_MOTION_DDOT":"0.0000000000000","CENTER_NAME":"EARTH","DECAY_DATE":null},{"ARG_OF_PERICENTER":"104.6265","SITE":"AFETR","LAUNCH_DATE":"2022-06-17","TIME_SYSTEM":"UTC","EPOCH":"2023-05-14T20:19:16.333248","PERIOD":"95.438","MEAN_ELEMENT_THEORY":"SGP4","INCLINATION":"53.2159","RA_OF_ASC_NODE":"327.2715","REF_FRAME":"TEME","MEAN_ANOMALY":"255.4878","FILE":"3908005","TLE_LINE2":"2 52857  53.2159 327.2715 0001363 104.6265 255.4878 15.08839855 50453","REV_AT_EPOCH":"5045","MEAN_MOTION_DDOT":"0.0000000000000","APOAPSIS":"540.689","DECAY_DATE":null,"CENTER_NAME":"EARTH","MEAN_MOTION":"15.08839855","TLE_LINE1":"1 52857U 22062AD  23134.84671682  .00001151  00000-0  90368-4 0  9992","PERIAPSIS":"538.803","MEAN_MOTION_DOT":"0.00001151","NORAD_CAT_ID":"52857","SEMIMAJOR_AXIS":"6917.881","GP_ID":"231853760","CLASSIFICATION_TYPE":"U","RCS_SIZE":"LARGE","OBJECT_NAME":"STARLINK-4199","ECCENTRICITY":"0.00013630","OBJECT_ID":"2022-062AD","OBJECT_TYPE":"PAYLOAD","EPHEMERIS_TYPE":"0","COUNTRY_CODE":"US","BSTAR":"0.00009036800000","ELEMENT_SET_NO":"999"},{"TIME_SYSTEM":"UTC","LAUNCH_DATE":"2022-06-17","SITE":"AFETR","ARG_OF_PERICENTER":"97.8104","PERIOD":"95.437","EPOCH":"2023-05-14T20:31:14.216160","RA_OF_ASC_NODE":"327.2329","INCLINATION":"53.2169","MEAN_ELEMENT_THEORY":"SGP4","TLE_LINE2":"2 52858  53.2169 327.2329 0001149  97.8104 262.3019 15.08843562 50457","FILE":"3908005","MEAN_ANOMALY":"262.3019","REF_FRAME":"TEME","REV_AT_EPOCH":"5045","CENTER_NAME":"EARTH","DECAY_DATE":null,"APOAPSIS":"540.529","MEAN_MOTION_DDOT":"0.0000000000000","PERIAPSIS":"538.940","TLE_LINE1":"1 52858U 22062AE  23134.85502565  .00000876  00000-0  73122-4 0  9999","MEAN_MOTION":"15.08843562","SEMIMAJOR_AXIS":"6917.870","NORAD_CAT_ID":"52858","MEAN_MOTION_DOT":"0.00000876","OBJECT_NAME":"STARLINK-4198","RCS_SIZE":"LARGE","GP_ID":"231855011","CLASSIFICATION_TYPE":"U","OBJECT_TYPE":"PAYLOAD","OBJECT_ID":"2022-062AE","ECCENTRICITY":"0.00011490","COUNTRY_CODE":"US","EPHEMERIS_TYPE":"0","BSTAR":"0.00007312200000","ELEMENT_SET_NO":"999"}];
